YAOGAN-43 01D           
1 60461U 24148D   26068.43560480  .00010676  00000+0  37766-3 0  9999
2 60461  35.0010  61.7102 0002556 326.2473  33.8080 15.28369377 87008
STARLINK-33586          
1 63073U 25035X   26068.24603226  .00026306  00000+0  96195-3 0  9990
2 63073  42.9983 142.5001 0000930 247.5627 112.5126 15.27583726 59743
