[{"OBJECT_NAME":"YAOGAN-43 01D","OBJECT_ID":"2024-148D","EPOCH":"2026-03-09T10:27:16.254720","MEAN_MOTION":15.28369377,"ECCENTRICITY":0.00025569,"INCLINATION":35.001,"RA_OF_ASC_NODE":61.7102,"ARG_OF_PERICENTER":326.2473,"MEAN_ANOMALY":33.808,"EPHEMERIS_TYPE":0,"CLASSIFICATION_TYPE":"U","NORAD_CAT_ID":60461,"ELEMENT_SET_NO":999,"REV_AT_EPOCH":8700,"BSTAR":0.00037765912,"MEAN_MOTION_DOT":0.00010676,"MEAN_MOTION_DDOT":0},{"OBJECT_NAME":"STARLINK-33586","OBJECT_ID":"2025-035X","EPOCH":"2026-03-09T05:54:17.187264","MEAN_MOTION":15.27583726,"ECCENTRICITY":9.301e-5,"INCLINATION":42.9983,"RA_OF_ASC_NODE":142.5001,"ARG_OF_PERICENTER":247.5627,"MEAN_ANOMALY":112.5126,"EPHEMERIS_TYPE":0,"CLASSIFICATION_TYPE":"U","NORAD_CAT_ID":63073,"ELEMENT_SET_NO":999,"REV_AT_EPOCH":5974,"BSTAR":0.00096194908,"MEAN_MOTION_DOT":0.00026306,"MEAN_MOTION_DDOT":0}]
